IRIDIUM 921 [-]         
1 24873U 97034E   23248.92497751  .00013224  00000+0  53398-3 0  9992
2 24873  86.3837  67.4588 0003637 248.0584 112.0276 15.24652118431810
IRIDIUM 26 [-]          
1 24903U 97043A   23248.66864702  .00000468  00000+0  15435-3 0  9997
2 24903  86.3992  23.5148 0002337  92.5975 267.5490 14.35980729363825
IRIDIUM 22 [-]          
1 24907U 97043E   23248.08706897  .00000502  00000+0  16986-3 0  9998
2 24907  86.3988  26.7677 0002107  93.3261 266.8176 14.34891868363375
DUMMY MASS 1 [-]        
1 24925U 97048A   23248.47676481  .00000448  00000+0  48361-4 0  9993
2 24925  86.3295  75.9460 0004794 302.3222  57.7537 14.85806286408471
DUMMY MASS 2 [-]        
1 24926U 97048B   23248.46727639  .00000448  00000+0  48605-4 0  9996
2 24926  86.3295  77.4450 0005865 315.1693  44.9056 14.85568423408261
IRIDIUM 29 [-]          
1 24944U 97051A   23248.18074438  .00000453  00000+0  15108-3 0  9998
2 24944  86.3925  56.7362 0001984  96.2646 263.8776 14.35354632359857
IRIDIUM 33 [-]          
1 24946U 97051C   23248.71688974  .00000309  00000+0  10348-3 0  9996
2 24946  86.3843  55.7920 0009421  50.8251 309.3780 14.34098101359507
IRIDIUM 28 [-]          
1 24948U 97051E   23248.72064532  .00000458  00000+0  15008-3 0  9990
2 24948  86.3936  54.3981 0002454  85.1802 274.9675 14.36273587360514
